{
    "links": {
        "self": "http://www.neowsapp.com/rest/v1/neo/3728905?api_key=iIulBulltgU6a56xZRHN4H3l9WmuAYTsLGpBGhQ2"
    },
    "id": "3728905",
    "neo_reference_id": "3728905",
    "name": "(2015 SJ17)",
    "designation": "2015 SJ17",
    "nasa_jpl_url": "http://ssd.jpl.nasa.gov/sbdb.cgi?sstr=3728905",
    "absolute_magnitude_h": 27.5,
    "estimated_diameter": {
        "kilometers": {
            "estimated_diameter_min": 0.008405334,
            "estimated_diameter_max": 0.0187948982
        },
        "meters": {
            "estimated_diameter_min": 8.4053340207,
            "estimated_diameter_max": 18.7948982439
        },
        "miles": {
            "estimated_diameter_min": 0.0052228308,
            "estimated_diameter_max": 0.0116786047
        },
        "feet": {
            "estimated_diameter_min": 27.5765560686,
            "estimated_diameter_max": 61.6630539546
        }
    },
    "is_potentially_hazardous_asteroid": false,
    "close_approach_data": [
        {
            "close_approach_date": "2015-10-03",
            "close_approach_date_full": "2015-Oct-03 06:18",
            "epoch_date_close_approach": 1443853080000,
            "relative_velocity": {
                "kilometers_per_second": "6.4334464953",
                "kilometers_per_hour": "23160.4073829468",
                "miles_per_hour": "14390.9764652538"
            },
            "miss_distance": {
                "astronomical": "0.0302563166",
                "lunar": "11.7697071574",
                "kilometers": "4526280.517405642",
                "miles": "2812500.2961441796"
            },
            "orbiting_body": "Earth"
        }
    ],
    "orbital_data": {
        "orbit_id": "3",
        "orbit_determination_date": "2017-04-06 08:31:40",
        "first_observation_date": "2015-09-23",
        "last_observation_date": "2015-10-05",
        "data_arc_in_days": 12,
        "observations_used": 19,
        "orbit_uncertainty": "8",
        "minimum_orbit_intersection": ".0134619",
        "jupiter_tisserand_invariant": "4.017",
        "epoch_osculation": "2457291.5",
        "eccentricity": ".4273689180744351",
        "semi_major_axis": "1.75339398667908",
        "inclination": "1.633226034135227",
        "ascending_node_longitude": "186.4440715850833",
        "orbital_period": "848.0426531134814",
        "perihelion_distance": "1.004047895633821",
        "perihelion_argument": "205.214690994814",
        "aphelion_distance": "2.502740077724339",
        "perihelion_time": "2457317.038326813979",
        "mean_anomaly": "349.1588027804043",
        "mean_motion": ".4245069498312444",
        "equinox": "J2000",
        "orbit_class": {
            "orbit_class_type": "APO",
            "orbit_class_description": "Near-Earth asteroid orbits which cross the Earth’s orbit similar to that of 1862 Apollo",
            "orbit_class_range": "a (semi-major axis) > 1.0 AU; q (perihelion) < 1.017 AU"
        }
    },
    "is_sentry_object": false
}